[
  {
    "OBJECT_ID": "1961-018D",
    "OBJECT_NAME": "MIDAS 3 DEB",
    "NORAD_CAT_ID": "196",
    "OBJECT_TYPE": "DEBRIS",
    "PERIOD": "161.856",
    "INCLINATION": "91.1837",
    "APOGEE": "3571.072",
    "PERIGEE": "3348.964",
    "ECCENTRICITY": "0.0112881",
    "MEAN_MOTION": "8.89676983",
    "TLE_LINE1": "1 00196U 61018D   16239.36709623  .00000017  00000-0  59239-2 0  9997",
    "TLE_LINE2": "2 00196  91.1837  44.0033 0112881 259.8434  98.9688  8.89676983790500"
  },
  {
    "OBJECT_ID": "1961-031A",
    "OBJECT_NAME": "TRANSIT 4B",
    "NORAD_CAT_ID": "202",
    "OBJECT_TYPE": "PAYLOAD",
    "PERIOD": "105.611",
    "INCLINATION": "32.4383",
    "APOGEE": "1098.067",
    "PERIGEE": "948.001",
    "ECCENTRICITY": "0.010138",
    "MEAN_MOTION": "13.63490894",
    "TLE_LINE1": "1 00202U 61031A   16238.68608229  .00000035  00000-0  17726-4 0  9991",
    "TLE_LINE2": "2 00202  32.4383 300.4779 0101380  10.2068 350.0585 13.63490894731812"
  },
  {
    "OBJECT_ID": "1961-031C",
    "OBJECT_NAME": "THOR ABLESTAR R/B",
    "NORAD_CAT_ID": "204",
    "OBJECT_TYPE": "ROCKET BODY",
    "PERIOD": "105.507",
    "INCLINATION": "32.443",
    "APOGEE": "1090.963",
    "PERIGEE": "945.371",
    "ECCENTRICITY": "0.0098422",
    "MEAN_MOTION": "13.64836932",
    "TLE_LINE1": "1 00204U 61031C   16239.54675227  .00000017  00000-0 -44265-5 0  9991",
    "TLE_LINE2": "2 00204  32.4430  31.3872 0098422  55.8945 305.0970 13.64836932733810"
  },
  {
    "OBJECT_ID": "1961-031B",
    "OBJECT_NAME": "TRAAC",
    "NORAD_CAT_ID": "205",
    "OBJECT_TYPE": "PAYLOAD",
    "PERIOD": "105.697",
    "INCLINATION": "32.4416",
    "APOGEE": "1102.720",
    "PERIGEE": "951.367",
    "ECCENTRICITY": "0.0102194",
    "MEAN_MOTION": "13.62383755",
    "TLE_LINE1": "1   205U 61031B   16238.87246380 +.00000031 +00000-0 +87144-5 0  9999",
    "TLE_LINE2": "2   205 032.4416 059.8513 0102194 185.4852 174.4651 13.62383755730236"
  },
  {
    "OBJECT_ID": "1961-015BE",
    "OBJECT_NAME": "THOR ABLESTAR DEB",
    "NORAD_CAT_ID": "210",
    "OBJECT_TYPE": "DEBRIS",
    "PERIOD": "103.933",
    "INCLINATION": "66.4581",
    "APOGEE": "974.499",
    "PERIGEE": "914.394",
    "ECCENTRICITY": "0.0041041",
    "MEAN_MOTION": "13.85499624",
    "TLE_LINE1": "1 00210U 61015BE  16239.30031910  .00000147  00000-0  19590-3 0  9993",
    "TLE_LINE2": "2 00210  66.4581 170.6556 0041041  29.3052 331.0311 13.85499624769180"
  },
  {
    "OBJECT_ID": "1961-015BK",
    "OBJECT_NAME": "THOR ABLESTAR DEB",
    "NORAD_CAT_ID": "223",
    "OBJECT_TYPE": "DEBRIS",
    "PERIOD": "103.703",
    "INCLINATION": "66.8923",
    "APOGEE": "983.747",
    "PERIGEE": "883.499",
    "ECCENTRICITY": "0.0068552",
    "MEAN_MOTION": "13.88577105",
    "TLE_LINE1": "1 00223U 61015BK  16239.55364334 -.00000062  00000-0  10956-4 0  9998",
    "TLE_LINE2": "2 00223  66.8923   3.8673 0068552 352.9269   7.0835 13.88577105793964"
  },
  {
    "OBJECT_ID": "1961-015BL",
    "OBJECT_NAME": "THOR ABLESTAR DEB",
    "NORAD_CAT_ID": "224",
    "OBJECT_TYPE": "DEBRIS",
    "PERIOD": "102.314",
    "INCLINATION": "66.7364",
    "APOGEE": "912.512",
    "PERIGEE": "823.863",
    "ECCENTRICITY": "0.0061168",
    "MEAN_MOTION": "14.07428106",
    "TLE_LINE1": "1   224U 61015BL  16238.91500424 +.00000182 +00000-0 +15342-3 0  9995",
    "TLE_LINE2": "2   224 066.7364 189.3208 0061168 035.2960 031.4992 14.07428106807893"
  },
  {
    "OBJECT_ID": "1961-015BM",
    "OBJECT_NAME": "THOR ABLESTAR DEB",
    "NORAD_CAT_ID": "225",
    "OBJECT_TYPE": "DEBRIS",
    "PERIOD": "100.641",
    "INCLINATION": "66.7992",
    "APOGEE": "865.502",
    "PERIGEE": "712.458",
    "ECCENTRICITY": "0.0106768",
    "MEAN_MOTION": "14.30823778",
    "TLE_LINE1": "1 00225U 61015BM  16239.49350068  .00000164  00000-0  89677-4 0  9990",
    "TLE_LINE2": "2 00225  66.7992 263.0627 0106768  13.3984 346.9909 14.30823778845046"
  },
  {
    "OBJECT_ID": "1962-002A",
    "OBJECT_NAME": "TIROS 4",
    "NORAD_CAT_ID": "226",
    "OBJECT_TYPE": "PAYLOAD",
    "PERIOD": "99.616",
    "INCLINATION": "48.2981",
    "APOGEE": "796.196",
    "PERIGEE": "684.251",
    "ECCENTRICITY": "0.0078631",
    "MEAN_MOTION": "14.45549478",
    "TLE_LINE1": "1 00226U 62002A   16238.83526803 -.00000122  00000-0  13717-4 0  9994",
    "TLE_LINE2": "2 00226  48.2981 356.2759 0078631 275.3430  83.8501 14.45549478870900"
  },
  {
    "OBJECT_ID": "1962-002B",
    "OBJECT_NAME": "DELTA 1 DEB (YO)",
    "NORAD_CAT_ID": "227",
    "OBJECT_TYPE": "DEBRIS",
    "PERIOD": "100.135",
    "INCLINATION": "48.1464",
    "APOGEE": "858.902",
    "PERIGEE": "670.972",
    "ECCENTRICITY": "0.0131547",
    "MEAN_MOTION": "14.38053869",
    "TLE_LINE1": "1   227U 62002B   16238.86005853 -.00000073 +00000-0 +30171-4 0  9993",
    "TLE_LINE2": "2   227 048.1464 197.4297 0131547 095.7073 265.8836 14.38053869828554"
  },
  {
    "OBJECT_ID": "1962-002C",
    "OBJECT_NAME": "DELTA 1 DEB (YO)",
    "NORAD_CAT_ID": "228",
    "OBJECT_TYPE": "DEBRIS",
    "PERIOD": "95.998",
    "INCLINATION": "48.4297",
    "APOGEE": "577.780",
    "PERIGEE": "555.861",
    "ECCENTRICITY": "0.001578",
    "MEAN_MOTION": "15.00025023",
    "TLE_LINE1": "1   228U 62002C   16238.91804938 +.00000359 +00000-0 +49009-4 0  9997",
    "TLE_LINE2": "2   228 048.4297 139.9058 0015780 237.8918 122.0474 15.00025023902191"
  },
  {
    "OBJECT_ID": "1961-015BN",
    "OBJECT_NAME": "THOR ABLESTAR DEB",
    "NORAD_CAT_ID": "230",
    "OBJECT_TYPE": "DEBRIS",
    "PERIOD": "103.151",
    "INCLINATION": "66.8825",
    "APOGEE": "980.529",
    "PERIGEE": "834.814",
    "ECCENTRICITY": "0.0099999",
    "MEAN_MOTION": "13.96002636",
    "TLE_LINE1": "1   230U 61015BN  16238.93809849 -.00000039 +00000-0 +26981-4 0  9991",
    "TLE_LINE2": "2   230 066.8825 206.1648 0099999 236.9985 122.1457 13.96002636805670"
  },
  {
    "OBJECT_ID": "1961-015BQ",
    "OBJECT_NAME": "THOR ABLESTAR DEB",
    "NORAD_CAT_ID": "232",
    "OBJECT_TYPE": "DEBRIS",
    "PERIOD": "102.927",
    "INCLINATION": "66.8202",
    "APOGEE": "936.536",
    "PERIGEE": "857.710",
    "ECCENTRICITY": "0.0054174",
    "MEAN_MOTION": "13.9903983",
    "TLE_LINE1": "1   232U 61015BQ  16238.91099076 -.00000013 +00000-0 +44724-4 0  9991",
    "TLE_LINE2": "2   232 066.8202 081.4995 0054174 142.2643 218.2259 13.99039830805694"
  },
  {
    "OBJECT_ID": "1961-015BR",
    "OBJECT_NAME": "THOR ABLESTAR DEB",
    "NORAD_CAT_ID": "233",
    "OBJECT_TYPE": "DEBRIS",
    "PERIOD": "98.672",
    "INCLINATION": "66.8525",
    "APOGEE": "711.209",
    "PERIGEE": "679.207",
    "ECCENTRICITY": "0.0022622",
    "MEAN_MOTION": "14.59370717",
    "TLE_LINE1": "1 00233U 61015BR  16239.52163387  .00000746  00000-0  17747-3 0  9993",
    "TLE_LINE2": "2 00233  66.8525   5.0212 0022622  74.0194 286.3410 14.59370717853555"
  },
  {
    "OBJECT_ID": "1961-015BS",
    "OBJECT_NAME": "THOR ABLESTAR DEB",
    "NORAD_CAT_ID": "234",
    "OBJECT_TYPE": "DEBRIS",
    "PERIOD": "102.713",
    "INCLINATION": "66.8765",
    "APOGEE": "942.596",
    "PERIGEE": "831.436",
    "ECCENTRICITY": "0.0076502",
    "MEAN_MOTION": "14.01960373",
    "TLE_LINE1": "1   234U 61015BS  16238.85276266 +.00000028 +00000-0 +67849-4 0  9992",
    "TLE_LINE2": "2   234 066.8765 054.1817 0076502 216.8183 142.7635 14.01960373809047"
  },
  {
    "OBJECT_ID": "1961-015BT",
    "OBJECT_NAME": "THOR ABLESTAR DEB",
    "NORAD_CAT_ID": "235",
    "OBJECT_TYPE": "DEBRIS",
    "PERIOD": "102.251",
    "INCLINATION": "66.9534",
    "APOGEE": "983.294",
    "PERIGEE": "747.120",
    "ECCENTRICITY": "0.0163028",
    "MEAN_MOTION": "14.08296848",
    "TLE_LINE1": "1   235U 61015BT  16238.95862705 +.00000212 +00000-0 +15030-3 0  9992",
    "TLE_LINE2": "2   235 066.9534 236.3853 0163028 147.9576 213.1553 14.08296848816661"
  },
  {
    "OBJECT_ID": "1961-015BY",
    "OBJECT_NAME": "THOR ABLESTAR DEB",
    "NORAD_CAT_ID": "243",
    "OBJECT_TYPE": "DEBRIS",
    "PERIOD": "103.113",
    "INCLINATION": "66.4665",
    "APOGEE": "932.834",
    "PERIGEE": "878.959",
    "ECCENTRICITY": "0.0036982",
    "MEAN_MOTION": "13.96513059",
    "TLE_LINE1": "1 00243U 61015BY  16239.22472893  .00000157  00000-0  17035-3 0  9992",
    "TLE_LINE2": "2 00243  66.4665 338.6396 0036982 227.0953 132.7021 13.96513059783127"
  },
  {
    "OBJECT_ID": "1961-015BZ",
    "OBJECT_NAME": "THOR ABLESTAR DEB",
    "NORAD_CAT_ID": "244",
    "OBJECT_TYPE": "DEBRIS",
    "PERIOD": "103.265",
    "INCLINATION": "66.8425",
    "APOGEE": "959.804",
    "PERIGEE": "866.231",
    "ECCENTRICITY": "0.0064169",
    "MEAN_MOTION": "13.94467764",
    "TLE_LINE1": "1   244U 61015BZ  16238.82480522 -.00000018 +00000-0 +43735-4 0  9990",
    "TLE_LINE2": "2   244 066.8425 021.0993 0064169 112.4987 248.2904 13.94467764799550"
  },
  {
    "OBJECT_ID": "1961-015CA",
    "OBJECT_NAME": "THOR ABLESTAR DEB",
    "NORAD_CAT_ID": "245",
    "OBJECT_TYPE": "DEBRIS",
    "PERIOD": "101.895",
    "INCLINATION": "66.0699",
    "APOGEE": "883.338",
    "PERIGEE": "813.426",
    "ECCENTRICITY": "0.0048372",
    "MEAN_MOTION": "14.13218108",
    "TLE_LINE1": "1   245U 61015CA  16238.92914461 +.00000372 +00000-0 +24206-3 0  9999",
    "TLE_LINE2": "2   245 066.0699 176.5240 0048372 123.9827 236.5868 14.13218108821143"
  },
  {
    "OBJECT_ID": "1961-015CB",
    "OBJECT_NAME": "THOR ABLESTAR DEB",
    "NORAD_CAT_ID": "246",
    "OBJECT_TYPE": "DEBRIS",
    "PERIOD": "103.918",
    "INCLINATION": "66.8682",
    "APOGEE": "989.060",
    "PERIGEE": "898.399",
    "ECCENTRICITY": "0.0061911",
    "MEAN_MOTION": "13.85703138",
    "TLE_LINE1": "1 00246U 61015CB  16239.40637748 -.00000038  00000-0  31810-4 0  9994",
    "TLE_LINE2": "2 00246  66.8682 200.1599 0061911 144.6714 215.8490 13.85703138128033"
  }
]
